[{"OBJECT_NAME":"EDISON-1","OBJECT_ID":"2025-009B","EPOCH":"2026-03-09T19:16:13.822464","MEAN_MOTION":15.29042904,"ECCENTRICITY":0.00043285,"INCLINATION":97.4042,"RA_OF_ASC_NODE":151.6286,"ARG_OF_PERICENTER":306.4185,"MEAN_ANOMALY":53.6655,"EPHEMERIS_TYPE":0,"CLASSIFICATION_TYPE":"U","NORAD_CAT_ID":62610,"ELEMENT_SET_NO":999,"REV_AT_EPOCH":6375,"BSTAR":0.00052814963,"MEAN_MOTION_DOT":0.00014835,"MEAN_MOTION_DDOT":0},{"OBJECT_NAME":"STARLINK-33709","OBJECT_ID":"2025-065W","EPOCH":"2026-03-09T03:32:28.744224","MEAN_MOTION":15.27595604,"ECCENTRICITY":0.00012134,"INCLINATION":42.9977,"RA_OF_ASC_NODE":110.3793,"ARG_OF_PERICENTER":265.0851,"MEAN_ANOMALY":94.9862,"EPHEMERIS_TYPE":0,"CLASSIFICATION_TYPE":"U","NORAD_CAT_ID":63419,"ELEMENT_SET_NO":999,"REV_AT_EPOCH":5275,"BSTAR":0.0015197217,"MEAN_MOTION_DOT":0.00041815,"MEAN_MOTION_DDOT":0}]
